[
    {
        "Altitude(m)": 622205.8358816012,
        "Argument of Periapsis(deg)": 0.0,
        "Eccentricity": 0.0,
        "Inclination(deg)": 60.0,
        "Latitude(deg)": -52.162348174167875,
        "Longitude(deg)": 132.70033092727542,
        "Mean Anomaly(deg)": 245.4545,
        "RAAN(deg)": 5.0,
        "Satellite Name": "Test1 37",
        "Satellite Number": 37,
        "Semi-Major Axis(m)": 6980739.136638005,
        "Time(s)": 0
    },
    {
        "Altitude(m)": 622344.7427725174,
        "Argument of Periapsis(deg)": 0.00010418945913296404,
        "Eccentricity": 0.0,
        "Inclination(deg)": 60.0,
        "Latitude(deg)": -52.51992845895439,
        "Longitude(deg)": 133.4815409296707,
        "Mean Anomaly(deg)": 246.07460614546184,
        "RAAN(deg)": 4.999579950860257,
        "Satellite Name": "Test1 37",
        "Satellite Number": 37,
        "Semi-Major Axis(m)": 6980739.136638005,
        "Time(s)": 10
    }
]